{
  "type": "FeatureCollection",
  "features": [
    {
      "type": "Feature",
      "properties": {
        "norad_id": 43823,
        "name": "GEO-KOMPSAT-2A",
        "group": "weather",
        "lat": 0.016141152919149842,
        "lon": 109.69227771117234,
        "alt_km": 35784.454125026015,
        "timestamp": "2025-12-20T16:47:35.934187+00:00",
        "meta_object_name": "GEO-KOMPSAT-2A",
        "meta_object_id": "2018-100A",
        "meta_epoch": "2025-12-20T09:00:38.664864",
        "meta_mean_motion": 1.00271358,
        "meta_eccentricity": 4.27e-05,
        "meta_inclination": 0.0523,
        "meta_ra_of_asc_node": 142.1748,
        "meta_arg_of_pericenter": 320.5531,
        "meta_mean_anomaly": 249.9154,
        "meta_ephemeris_type": 0,
        "meta_classification_type": "U",
        "meta_norad_cat_id": 43823,
        "meta_element_set_no": 999,
        "meta_rev_at_epoch": 2583,
        "meta_bstar": 0,
        "meta_mean_motion_dot": -3.2e-06,
        "meta_mean_motion_ddot": 0,
        "tle_line1": "1 43823U 18100A   25354.37544751 -.00000320  00000+0  00000+0 0  9999",
        "tle_line2": "2 43823   0.0523 142.1748 0000427 320.5531 249.9154  1.00271358 25830"
      },
      "geometry": {
        "type": "Point",
        "coordinates": [
          109.69227771117234,
          0.016141152919149842
        ]
      }
    },
    {
      "type": "Feature",
      "properties": {
        "norad_id": 44387,
        "name": "METEOR-M2 2",
        "group": "weather",
        "lat": 52.518072515145896,
        "lon": 166.31284092965956,
        "alt_km": 804.7737028553975,
        "timestamp": "2025-12-20T16:47:35.934198+00:00",
        "meta_object_name": "METEOR-M2 2",
        "meta_object_id": "2019-038A",
        "meta_epoch": "2025-12-20T12:49:46.249248",
        "meta_mean_motion": 14.24294168,
        "meta_eccentricity": 0.0001597,
        "meta_inclination": 98.897,
        "meta_ra_of_asc_node": 334.3587,
        "meta_arg_of_pericenter": 131.2833,
        "meta_mean_anomaly": 228.8483,
        "meta_ephemeris_type": 0,
        "meta_classification_type": "U",
        "meta_norad_cat_id": 44387,
        "meta_element_set_no": 999,
        "meta_rev_at_epoch": 33586,
        "meta_bstar": -1.6911e-05,
        "meta_mean_motion_dot": -8.5e-07,
        "meta_mean_motion_ddot": 0,
        "tle_line1": "1 44387U 19038A   25354.53456307 -.00000085  00000+0 -16911-4 0  9995",
        "tle_line2": "2 44387  98.8970 334.3587 0001597 131.2833 228.8483 14.24294168335866"
      },
      "geometry": {
        "type": "Point",
        "coordinates": [
          166.31284092965956,
          52.518072515145896
        ]
      }
    },
    {
      "type": "Feature",
      "properties": {
        "norad_id": 47719,
        "name": "ARKTIKA-M 1",
        "group": "weather",
        "lat": 59.590520719640615,
        "lon": 142.3856883865868,
        "alt_km": 36046.13066221168,
        "timestamp": "2025-12-20T16:47:35.934212+00:00",
        "meta_object_name": "ARKTIKA-M 1",
        "meta_object_id": "2021-016A",
        "meta_epoch": "2025-12-20T01:15:32.338368",
        "meta_mean_motion": 2.00630446,
        "meta_eccentricity": 0.72079263,
        "meta_inclination": 63.1764,
        "meta_ra_of_asc_node": 82.997,
        "meta_arg_of_pericenter": 269.153,
        "meta_mean_anomaly": 15.5565,
        "meta_ephemeris_type": 0,
        "meta_classification_type": "U",
        "meta_norad_cat_id": 47719,
        "meta_element_set_no": 999,
        "meta_rev_at_epoch": 3519,
        "meta_bstar": 0,
        "meta_mean_motion_dot": -1.14e-06,
        "meta_mean_motion_ddot": 0,
        "tle_line1": "1 47719U 21016A   25354.05245762 -.00000114  00000+0  00000+0 0  9993",
        "tle_line2": "2 47719  63.1764  82.9970 7207926 269.1530  15.5565  2.00630446 35191"
      },
      "geometry": {
        "type": "Point",
        "coordinates": [
          142.3856883865868,
          59.590520719640615
        ]
      }
    },
    {
      "type": "Feature",
      "properties": {
        "norad_id": 49008,
        "name": "FENGYUN 3E",
        "group": "weather",
        "lat": -40.122294581450944,
        "lon": 2.5814505225926148,
        "alt_km": 832.3928905251678,
        "timestamp": "2025-12-20T16:47:35.934224+00:00",
        "meta_object_name": "FENGYUN 3E",
        "meta_object_id": "2021-062A",
        "meta_epoch": "2025-12-20T11:54:39.279744",
        "meta_mean_motion": 14.19881742,
        "meta_eccentricity": 7.33e-05,
        "meta_inclination": 98.7468,
        "meta_ra_of_asc_node": 354.9256,
        "meta_arg_of_pericenter": 210.9515,
        "meta_mean_anomaly": 149.1618,
        "meta_ephemeris_type": 0,
        "meta_classification_type": "U",
        "meta_norad_cat_id": 49008,
        "meta_element_set_no": 999,
        "meta_rev_at_epoch": 23122,
        "meta_bstar": 0.00015994,
        "meta_mean_motion_dot": 2.95e-06,
        "meta_mean_motion_ddot": 0,
        "tle_line1": "1 49008U 21062A   25354.49628796  .00000295  00000+0  15994-3 0  9998",
        "tle_line2": "2 49008  98.7468 354.9256 0000733 210.9515 149.1618 14.19881742231220"
      },
      "geometry": {
        "type": "Point",
        "coordinates": [
          2.5814505225926148,
          -40.122294581450944
        ]
      }
    },
    {
      "type": "Feature",
      "properties": {
        "norad_id": 51850,
        "name": "GOES 18",
        "group": "weather",
        "lat": 0.002960595643142221,
        "lon": -155.5717383207474,
        "alt_km": 35787.13378103489,
        "timestamp": "2025-12-20T16:47:35.934239+00:00",
        "meta_object_name": "GOES 18",
        "meta_object_id": "2022-021A",
        "meta_epoch": "2025-12-20T09:17:38.654880",
        "meta_mean_motion": 1.00272999,
        "meta_eccentricity": 5.1e-05,
        "meta_inclination": 0.0209,
        "meta_ra_of_asc_node": 182.5864,
        "meta_arg_of_pericenter": 153.6339,
        "meta_mean_anomaly": 115.4236,
        "meta_ephemeris_type": 0,
        "meta_classification_type": "U",
        "meta_norad_cat_id": 51850,
        "meta_element_set_no": 999,
        "meta_rev_at_epoch": 480,
        "meta_bstar": 0,
        "meta_mean_motion_dot": 1.2e-06,
        "meta_mean_motion_ddot": 0,
        "tle_line1": "1 51850U 22021A   25354.38725295  .00000120  00000+0  00000+0 0  9997",
        "tle_line2": "2 51850   0.0209 182.5864 0000510 153.6339 115.4236  1.00272999  4805"
      },
      "geometry": {
        "type": "Point",
        "coordinates": [
          -155.5717383207474,
          0.002960595643142221
        ]
      }
    },
    {
      "type": "Feature",
      "properties": {
        "norad_id": 54234,
        "name": "NOAA 21 (JPSS-2)",
        "group": "weather",
        "lat": -43.823939046190766,
        "lon": -60.59346500107127,
        "alt_km": 833.0396300372558,
        "timestamp": "2025-12-20T16:47:35.934251+00:00",
        "meta_object_name": "NOAA 21 (JPSS-2)",
        "meta_object_id": "2022-150A",
        "meta_epoch": "2025-12-20T08:32:38.760288",
        "meta_mean_motion": 14.19526129,
        "meta_eccentricity": 0.0001889,
        "meta_inclination": 98.7472,
        "meta_ra_of_asc_node": 290.5695,
        "meta_arg_of_pericenter": 22.8895,
        "meta_mean_anomaly": 337.2365,
        "meta_ephemeris_type": 0,
        "meta_classification_type": "U",
        "meta_norad_cat_id": 54234,
        "meta_element_set_no": 999,
        "meta_rev_at_epoch": 16117,
        "meta_bstar": 4.4584e-05,
        "meta_mean_motion_dot": 5e-07,
        "meta_mean_motion_ddot": 0,
        "tle_line1": "1 54234U 22150A   25354.35600417  .00000050  00000+0  44584-4 0  9996",
        "tle_line2": "2 54234  98.7472 290.5695 0001889  22.8895 337.2365 14.19526129161178"
      },
      "geometry": {
        "type": "Point",
        "coordinates": [
          -60.59346500107127,
          -43.823939046190766
        ]
      }
    },
    {
      "type": "Feature",
      "properties": {
        "norad_id": 54743,
        "name": "METEOSAT-12 (MTG-I1)",
        "group": "weather",
        "lat": -0.4883890649911038,
        "lon": -18.86883872988054,
        "alt_km": 35785.01503801803,
        "timestamp": "2025-12-20T16:47:35.934263+00:00",
        "meta_object_name": "METEOSAT-12 (MTG-I1)",
        "meta_object_id": "2022-170C",
        "meta_epoch": "2025-12-20T08:05:38.126112",
        "meta_mean_motion": 1.00270554,
        "meta_eccentricity": 0.0001481,
        "meta_inclination": 0.6947,
        "meta_ra_of_asc_node": 24.8654,
        "meta_arg_of_pericenter": 239.6742,
        "meta_mean_anomaly": 305.7353,
        "meta_ephemeris_type": 0,
        "meta_classification_type": "U",
        "meta_norad_cat_id": 54743,
        "meta_element_set_no": 999,
        "meta_rev_at_epoch": 1118,
        "meta_bstar": 0,
        "meta_mean_motion_dot": 1.6e-07,
        "meta_mean_motion_ddot": 0,
        "tle_line1": "1 54743U 22170C   25354.33724683  .00000016  00000+0  00000+0 0  9995",
        "tle_line2": "2 54743   0.6947  24.8654 0001481 239.6742 305.7353  1.00270554 11188"
      },
      "geometry": {
        "type": "Point",
        "coordinates": [
          -18.86883872988054,
          -0.4883890649911038
        ]
      }
    }
  ]
}